STARLINK-1570           
1 46059U 20055AJ  26068.51642000  .00003570  00000+0  13254-3 0  9998
2 46059  53.1603 114.7149 0001540 115.7829 244.3331 15.30212858309001
KUIPER-00208            
1 67775U 26030M   26068.67231509  .00043852  00000+0  13883-2 0  9994
2 67775  51.8846 219.6993 0015525  57.3146 302.9333 15.32208734  5080
